{
  "norad_id": 68657,
  "name": "HULIANWANG DIGUI-165",
  "history": [
    {
      "epoch": "2026-04-09T21:05:53.443392Z",
      "apogee_km": 957.6388366363944,
      "perigee_km": 947.6850778122744,
      "latitude_deg": -6.867710453875381e-05,
      "longitude_deg": -86.57694095679615,
      "height_km": 959.7448792551097,
      "semi_major_axis_km": 7330.798957224334,
      "eccentricity": 0.0006789,
      "inclination_deg": 86.495,
      "raan_deg": 68.0167,
      "arg_perigee_deg": 214.5705,
      "mean_anomaly_deg": 145.5021,
      "mean_motion_rev_day": 13.83170755
    },
    {
      "epoch": "2026-04-10T12:43:25.918176Z",
      "apogee_km": 957.6951906915046,
      "perigee_km": 947.656375666219,
      "latitude_deg": 1.927835150434098e-05,
      "longitude_deg": 38.15332700546373,
      "height_km": 959.8617900206563,
      "semi_major_axis_km": 7330.8127831788615,
      "eccentricity": 0.0006847,
      "inclination_deg": 86.4951,
      "raan_deg": 67.774,
      "arg_perigee_deg": 213.1746,
      "mean_anomaly_deg": 146.8993,
      "mean_motion_rev_day": 13.83166842
    },
    {
      "epoch": "2026-04-11T18:14:21.329376Z",
      "apogee_km": 957.7292922044398,
      "perigee_km": 947.6331427389732,
      "latitude_deg": -3.573998257149717e-05,
      "longitude_deg": -46.24891272759373,
      "height_km": 960.090281259191,
      "semi_major_axis_km": 7330.818217471706,
      "eccentricity": 0.00068861,
      "inclination_deg": 86.4954,
      "raan_deg": 67.3148,
      "arg_perigee_deg": 208.7754,
      "mean_anomaly_deg": 151.3034,
      "mean_motion_rev_day": 13.83165304
    },
    {
      "epoch": "2026-04-14T08:44:58.545600Z",
      "apogee_km": 958.5142225934324,
      "perigee_km": 947.8026134840457,
      "latitude_deg": 3.8400536748143495e-06,
      "longitude_deg": 92.55571398627465,
      "height_km": 961.2275812865149,
      "semi_major_axis_km": 7331.295418038739,
      "eccentricity": 0.00073054,
      "inclination_deg": 86.4958,
      "raan_deg": 66.3417,
      "arg_perigee_deg": 198.2647,
      "mean_anomaly_deg": 161.8259,
      "mean_motion_rev_day": 13.83030259
    },
    {
      "epoch": "2026-04-15T10:48:43.464384Z",
      "apogee_km": 963.258258008108,
      "perigee_km": 952.3909112358806,
      "latitude_deg": 5.5059910341897475e-05,
      "longitude_deg": 60.13920945102548,
      "height_km": 966.1502950339677,
      "semi_major_axis_km": 7335.961584621994,
      "eccentricity": 0.00074069,
      "inclination_deg": 86.4964,
      "raan_deg": 65.9327,
      "arg_perigee_deg": 190.3334,
      "mean_anomaly_deg": 169.7682,
      "mean_motion_rev_day": 13.81710918
    },
    {
      "epoch": "2026-04-15T19:30:14.484096Z",
      "apogee_km": 964.6184024374079,
      "perigee_km": 954.1829563497749,
      "latitude_deg": 3.1910386058074754e-06,
      "longitude_deg": -70.72850748199728,
      "height_km": 967.5333899116681,
      "semi_major_axis_km": 7337.537679393591,
      "eccentricity": 0.0007111,
      "inclination_deg": 86.4958,
      "raan_deg": 65.8012,
      "arg_perigee_deg": 188.9983,
      "mean_anomaly_deg": 171.1057,
      "mean_motion_rev_day": 13.81265757
    }
  ]
}